LANDSAT 9               
1 49260U 21088A   26088.19690765  .00000497  00000+0  12031-3 0  9996
2 49260  98.1905 159.6649 0001166  95.3727 264.7605 14.57117262239350
CSG-2                   
1 51444U 22008A   26088.22013203  .00000682  00000+0  92197-4 0  9994
2 51444  97.8881 272.9736 0001390  83.4445 276.6926 14.82161633224740
GAOFEN-12 03            
1 52912U 22069A   26088.20533716  .00001406  00000+0  19309-3 0  9994
2 52912  97.8381 338.0562 0002357  68.1971 291.9491 14.79896731202782
SWOT                    
1 54754U 22173A   26088.17386823  .00000122  00000+0  84457-4 0  9998
2 54754  77.6097 143.3242 0000693 215.4384 144.6721 14.00172748167954
GAOFEN-12 04            
1 57654U 23123A   26088.23183626  .00001349  00000+0  18497-3 0  9991
2 57654  97.9129   7.4063 0001391  73.9529 286.1836 14.80057959140800
PARS 1                  
1 59065U 24039Q   26088.19162196  .00017180  00000+0  37824-3 0  9995
2 59065  97.4773  66.7219 0011439  52.8040 307.4250 15.43958242116295
RESURS-P 4              
1 59371U 24061A   26088.19720848  .00004712  00000+0  14981-3 0  9990
2 59371  97.2678  37.5140 0001040  59.8195 300.3150 15.33092549111510
LEGION 1                
1 59625U 24081A   26088.19937860  .00005565  00000+0  28866-3 0  9992
2 59625  97.5048 166.8976 0008568 301.6392  58.4005 15.16528009105416
LEGION 2                
1 59626U 24081B   26088.17117337  .00006526  00000+0  33565-3 0  9990
2 59626  97.5048 166.9494 0009308 268.9055  91.1111 15.16750576105415
ALOS-4 (DAICHI-4)       
1 60182U 24123A   26085.84932095  .00001752  00000+0  24134-3 0  9991
2 60182  97.9192 184.1997 0001538 100.5153 259.6232 14.79479083 93707
LEGION 3                
1 60452U 24146A   26088.18452273  .00005556  00000+0  30304-3 0  9993
2 60452  45.0008  99.3931 0007497  68.1844 291.9831 15.15350903 89886
LEGION 4                
1 60453U 24146B   26088.18436497  .00006417  00000+0  34723-3 0  9990
2 60453  45.0009 191.2645 0015451 227.2550 132.7028 15.15346475 88735
SENTINEL-2C             
1 60989U 24157A   26088.17256340  .00000164  00000+0  79208-4 0  9993
2 60989  98.5659 164.1056 0001111 115.8842 244.2456 14.30821476 81543
IONOSFERA-M 1           
1 61735U 24199A   26088.16246860  .00000080  00000+0  55598-4 0  9997
2 61735  98.7293 322.1318 0001714  49.6835 310.4493 14.22738943116320
IONOSFERA-M 2           
1 61736U 24199B   26088.19693347  .00000061  00000+0  46885-4 0  9995
2 61736  98.7291 322.0773 0001130 130.7328 229.3948 14.22741853119458
BIOMASS                 
1 63772U 25090A   26088.12111918  .00001687  00000+0  30597-3 0  9997
2 63772  98.0749 276.5945 0001163  89.6330 270.5008 14.67538058 48946
GOSAT-GW (IBUKI GW)     
1 64694U 25141A   26065.03170321  .00001373  00000+0  25032-3 0  9996
2 64694  98.0504   4.0681 0001432  83.7436 276.3932 14.67569112 36718
