[{"OBJECT_NAME":"LANDSAT 9","OBJECT_ID":"2021-088A","EPOCH":"2026-03-29T04:43:32.820960","MEAN_MOTION":14.57117262,"ECCENTRICITY":0.0001166,"INCLINATION":98.1905,"RA_OF_ASC_NODE":159.6649,"ARG_OF_PERICENTER":95.3727,"MEAN_ANOMALY":264.7605,"EPHEMERIS_TYPE":0,"CLASSIFICATION_TYPE":"U","NORAD_CAT_ID":49260,"ELEMENT_SET_NO":999,"REV_AT_EPOCH":23935,"BSTAR":0.00012031,"MEAN_MOTION_DOT":4.97e-6,"MEAN_MOTION_DDOT":0},{"OBJECT_NAME":"CSG-2","OBJECT_ID":"2022-008A","EPOCH":"2026-03-29T05:16:59.407392","MEAN_MOTION":14.82161633,"ECCENTRICITY":0.000139,"INCLINATION":97.8881,"RA_OF_ASC_NODE":272.9736,"ARG_OF_PERICENTER":83.4445,"MEAN_ANOMALY":276.6926,"EPHEMERIS_TYPE":0,"CLASSIFICATION_TYPE":"U","NORAD_CAT_ID":51444,"ELEMENT_SET_NO":999,"REV_AT_EPOCH":22474,"BSTAR":9.2197e-5,"MEAN_MOTION_DOT":6.82e-6,"MEAN_MOTION_DDOT":0},{"OBJECT_NAME":"GAOFEN-12 03","OBJECT_ID":"2022-069A","EPOCH":"2026-03-29T04:55:41.130624","MEAN_MOTION":14.79896731,"ECCENTRICITY":0.0002357,"INCLINATION":97.8381,"RA_OF_ASC_NODE":338.0562,"ARG_OF_PERICENTER":68.1971,"MEAN_ANOMALY":291.9491,"EPHEMERIS_TYPE":0,"CLASSIFICATION_TYPE":"U","NORAD_CAT_ID":52912,"ELEMENT_SET_NO":999,"REV_AT_EPOCH":20278,"BSTAR":0.00019309,"MEAN_MOTION_DOT":1.406e-5,"MEAN_MOTION_DDOT":0},{"OBJECT_NAME":"SWOT","OBJECT_ID":"2022-173A","EPOCH":"2026-03-29T04:10:22.215072","MEAN_MOTION":14.00172748,"ECCENTRICITY":6.93e-5,"INCLINATION":77.6097,"RA_OF_ASC_NODE":143.3242,"ARG_OF_PERICENTER":215.4384,"MEAN_ANOMALY":144.6721,"EPHEMERIS_TYPE":0,"CLASSIFICATION_TYPE":"U","NORAD_CAT_ID":54754,"ELEMENT_SET_NO":999,"REV_AT_EPOCH":16795,"BSTAR":8.4457e-5,"MEAN_MOTION_DOT":1.22e-6,"MEAN_MOTION_DDOT":0},{"OBJECT_NAME":"GAOFEN-12 04","OBJECT_ID":"2023-123A","EPOCH":"2026-03-29T05:33:50.652864","MEAN_MOTION":14.80057959,"ECCENTRICITY":0.0001391,"INCLINATION":97.9129,"RA_OF_ASC_NODE":7.4063,"ARG_OF_PERICENTER":73.9529,"MEAN_ANOMALY":286.1836,"EPHEMERIS_TYPE":0,"CLASSIFICATION_TYPE":"U","NORAD_CAT_ID":57654,"ELEMENT_SET_NO":999,"REV_AT_EPOCH":14080,"BSTAR":0.00018497,"MEAN_MOTION_DOT":1.349e-5,"MEAN_MOTION_DDOT":0},{"OBJECT_NAME":"PARS 1","OBJECT_ID":"2024-039Q","EPOCH":"2026-03-29T04:35:56.137344","MEAN_MOTION":15.43958242,"ECCENTRICITY":0.0011439,"INCLINATION":97.4773,"RA_OF_ASC_NODE":66.7219,"ARG_OF_PERICENTER":52.804,"MEAN_ANOMALY":307.425,"EPHEMERIS_TYPE":0,"CLASSIFICATION_TYPE":"U","NORAD_CAT_ID":59065,"ELEMENT_SET_NO":999,"REV_AT_EPOCH":11629,"BSTAR":0.00037824,"MEAN_MOTION_DOT":0.0001718,"MEAN_MOTION_DDOT":0},{"OBJECT_NAME":"RESURS-P 4","OBJECT_ID":"2024-061A","EPOCH":"2026-03-29T04:43:58.812672","MEAN_MOTION":15.33092549,"ECCENTRICITY":0.000104,"INCLINATION":97.2678,"RA_OF_ASC_NODE":37.514,"ARG_OF_PERICENTER":59.8195,"MEAN_ANOMALY":300.315,"EPHEMERIS_TYPE":0,"CLASSIFICATION_TYPE":"U","NORAD_CAT_ID":59371,"ELEMENT_SET_NO":999,"REV_AT_EPOCH":11151,"BSTAR":0.00014981,"MEAN_MOTION_DOT":4.712e-5,"MEAN_MOTION_DDOT":0},{"OBJECT_NAME":"LEGION 1","OBJECT_ID":"2024-081A","EPOCH":"2026-03-29T04:47:06.311040","MEAN_MOTION":15.16528009,"ECCENTRICITY":0.0008568,"INCLINATION":97.5048,"RA_OF_ASC_NODE":166.8976,"ARG_OF_PERICENTER":301.6392,"MEAN_ANOMALY":58.4005,"EPHEMERIS_TYPE":0,"CLASSIFICATION_TYPE":"U","NORAD_CAT_ID":59625,"ELEMENT_SET_NO":999,"REV_AT_EPOCH":10541,"BSTAR":0.00028866,"MEAN_MOTION_DOT":5.565e-5,"MEAN_MOTION_DDOT":0},{"OBJECT_NAME":"LEGION 2","OBJECT_ID":"2024-081B","EPOCH":"2026-03-29T04:06:29.379168","MEAN_MOTION":15.16750576,"ECCENTRICITY":0.0009308,"INCLINATION":97.5048,"RA_OF_ASC_NODE":166.9494,"ARG_OF_PERICENTER":268.9055,"MEAN_ANOMALY":91.1111,"EPHEMERIS_TYPE":0,"CLASSIFICATION_TYPE":"U","NORAD_CAT_ID":59626,"ELEMENT_SET_NO":999,"REV_AT_EPOCH":10541,"BSTAR":0.00033565,"MEAN_MOTION_DOT":6.526e-5,"MEAN_MOTION_DDOT":0},{"OBJECT_NAME":"ALOS-4 (DAICHI-4)","OBJECT_ID":"2024-123A","EPOCH":"2026-03-26T20:23:01.330080","MEAN_MOTION":14.79479083,"ECCENTRICITY":0.00015387,"INCLINATION":97.9192,"RA_OF_ASC_NODE":184.1997,"ARG_OF_PERICENTER":100.5153,"MEAN_ANOMALY":259.6232,"EPHEMERIS_TYPE":0,"CLASSIFICATION_TYPE":"U","NORAD_CAT_ID":60182,"ELEMENT_SET_NO":999,"REV_AT_EPOCH":9370,"BSTAR":0.00024134111,"MEAN_MOTION_DOT":1.752e-5,"MEAN_MOTION_DDOT":0},{"OBJECT_NAME":"LEGION 3","OBJECT_ID":"2024-146A","EPOCH":"2026-03-29T04:25:42.763872","MEAN_MOTION":15.15350903,"ECCENTRICITY":0.0007497,"INCLINATION":45.0008,"RA_OF_ASC_NODE":99.3931,"ARG_OF_PERICENTER":68.1844,"MEAN_ANOMALY":291.9831,"EPHEMERIS_TYPE":0,"CLASSIFICATION_TYPE":"U","NORAD_CAT_ID":60452,"ELEMENT_SET_NO":999,"REV_AT_EPOCH":8988,"BSTAR":0.00030304,"MEAN_MOTION_DOT":5.556e-5,"MEAN_MOTION_DDOT":0},{"OBJECT_NAME":"LEGION 4","OBJECT_ID":"2024-146B","EPOCH":"2026-03-29T04:25:29.133408","MEAN_MOTION":15.15346475,"ECCENTRICITY":0.0015451,"INCLINATION":45.0009,"RA_OF_ASC_NODE":191.2645,"ARG_OF_PERICENTER":227.255,"MEAN_ANOMALY":132.7028,"EPHEMERIS_TYPE":0,"CLASSIFICATION_TYPE":"U","NORAD_CAT_ID":60453,"ELEMENT_SET_NO":999,"REV_AT_EPOCH":8873,"BSTAR":0.00034723,"MEAN_MOTION_DOT":6.417e-5,"MEAN_MOTION_DDOT":0},{"OBJECT_NAME":"SENTINEL-2C","OBJECT_ID":"2024-157A","EPOCH":"2026-03-29T04:08:29.477760","MEAN_MOTION":14.30821476,"ECCENTRICITY":0.0001111,"INCLINATION":98.5659,"RA_OF_ASC_NODE":164.1056,"ARG_OF_PERICENTER":115.8842,"MEAN_ANOMALY":244.2456,"EPHEMERIS_TYPE":0,"CLASSIFICATION_TYPE":"U","NORAD_CAT_ID":60989,"ELEMENT_SET_NO":999,"REV_AT_EPOCH":8154,"BSTAR":7.9208e-5,"MEAN_MOTION_DOT":1.64e-6,"MEAN_MOTION_DDOT":0},{"OBJECT_NAME":"IONOSFERA-M 1","OBJECT_ID":"2024-199A","EPOCH":"2026-03-29T03:53:57.287040","MEAN_MOTION":14.22738943,"ECCENTRICITY":0.0001714,"INCLINATION":98.7293,"RA_OF_ASC_NODE":322.1318,"ARG_OF_PERICENTER":49.6835,"MEAN_ANOMALY":310.4493,"EPHEMERIS_TYPE":0,"CLASSIFICATION_TYPE":"U","NORAD_CAT_ID":61735,"ELEMENT_SET_NO":999,"REV_AT_EPOCH":11632,"BSTAR":5.5598e-5,"MEAN_MOTION_DOT":8.0e-7,"MEAN_MOTION_DDOT":0},{"OBJECT_NAME":"IONOSFERA-M 2","OBJECT_ID":"2024-199B","EPOCH":"2026-03-29T04:43:35.051808","MEAN_MOTION":14.22741853,"ECCENTRICITY":0.000113,"INCLINATION":98.7291,"RA_OF_ASC_NODE":322.0773,"ARG_OF_PERICENTER":130.7328,"MEAN_ANOMALY":229.3948,"EPHEMERIS_TYPE":0,"CLASSIFICATION_TYPE":"U","NORAD_CAT_ID":61736,"ELEMENT_SET_NO":999,"REV_AT_EPOCH":11945,"BSTAR":4.6885e-5,"MEAN_MOTION_DOT":6.1e-7,"MEAN_MOTION_DDOT":0},{"OBJECT_NAME":"BIOMASS","OBJECT_ID":"2025-090A","EPOCH":"2026-03-29T02:54:24.697152","MEAN_MOTION":14.67538058,"ECCENTRICITY":0.0001163,"INCLINATION":98.0749,"RA_OF_ASC_NODE":276.5945,"ARG_OF_PERICENTER":89.633,"MEAN_ANOMALY":270.5008,"EPHEMERIS_TYPE":0,"CLASSIFICATION_TYPE":"U","NORAD_CAT_ID":63772,"ELEMENT_SET_NO":999,"REV_AT_EPOCH":4894,"BSTAR":0.00030597,"MEAN_MOTION_DOT":1.687e-5,"MEAN_MOTION_DDOT":0},{"OBJECT_NAME":"GOSAT-GW (IBUKI GW)","OBJECT_ID":"2025-141A","EPOCH":"2026-03-06T00:45:39.157344","MEAN_MOTION":14.67569112,"ECCENTRICITY":0.00014325,"INCLINATION":98.0504,"RA_OF_ASC_NODE":4.0681,"ARG_OF_PERICENTER":83.7436,"MEAN_ANOMALY":276.3932,"EPHEMERIS_TYPE":0,"CLASSIFICATION_TYPE":"U","NORAD_CAT_ID":64694,"ELEMENT_SET_NO":999,"REV_AT_EPOCH":3671,"BSTAR":0.00025031569,"MEAN_MOTION_DOT":1.373e-5,"MEAN_MOTION_DDOT":0}]
